STARLINK-3119           
1 49145U 21082R   25237.57687442  .00000741  00000+0  69868-4 0  9990
2 49145  70.0012  28.9121 0002951 268.8839  91.1982 14.98333870217588
STARLINK-3116           
1 49146U 21082S   25237.62619974 -.00000045  00000+0  40573-5 0  9993
2 49146  69.9999  48.9720 0002787 268.0430  92.0409 14.97521481218258
STARLINK-3071           
1 49147U 21082T   25237.52263320  .00000372  00000+0  38997-4 0  9991
2 49147  70.0012  29.0675 0003084 272.6251  87.4555 14.98332232217580
STARLINK-3048           
1 49148U 21082U   25237.61784490  .00000726  00000+0  70035-4 0  9990
2 49148  70.0001  48.9727 0002753 270.0821  90.0023 14.97522285217098
STARLINK-3102           
1 49151U 21082X   25237.56854363  .00000849  00000+0  78976-4 0  9993
2 49151  70.0009  28.9393 0003212 266.5379  93.5413 14.98317121218786
STARLINK-3072           
1 49153U 21082Z   25237.56018520  .00000830  00000+0  77376-4 0  9995
2 49153  70.0009  28.9666 0003151 270.3940  89.6858 14.98331803218793
STARLINK-3068           
1 49154U 21082AA  25237.61367638 -.00000207  00000+0 -97895-5 0  9998
2 49154  70.0001  48.9871 0002641 268.5354  91.5502 14.97519738218171
STARLINK-3060           
1 49155U 21082AB  25237.62277324  .00000360  00000+0  37966-4 0  9992
2 49155  70.0010  28.8017 0002962 266.1067  93.9753 14.98329755218670
STARLINK-3085           
1 49156U 21082AC  25237.60192807  .00000902  00000+0  83369-4 0  9993
2 49156  70.0011  28.8568 0003065 272.5347  87.5461 14.98331986218674
STARLINK-3051           
1 49157U 21082AD  25237.58059244  .00000935  00000+0  85976-4 0  9990
2 49157  70.0003  48.9052 0002453 266.8943  93.1936 14.98401178218193
STARLINK-3083           
1 49158U 21082AE  25237.44914056  .00042424  00000+0  10236-2 0  9991
2 49158  69.9818 351.5208 0002038 171.6818 188.4397 15.40998620219601
STARLINK-3056           
1 49159U 21082AF  25237.61489629  .00000783  00000+0  73367-4 0  9992
2 49159  69.9998  68.8325 0002173 271.2061  88.8849 14.98326884217709
STARLINK-3095           
1 49160U 21082AG  25237.60237055  .00001172  00000+0  10601-3 0  9991
2 49160  70.0006  68.8451 0002925 269.9422  90.1402 14.98340510217673
STARLINK-3080           
1 49161U 21082AH  25237.60656701  .00000478  00000+0  47878-4 0  9990
2 49161  69.9998  68.8316 0003325 270.6211  89.4567 14.98330218217689
STARLINK-3088           
1 49163U 21082AK  25237.60114929 -.00000312  00000+0 -18815-4 0  9991
2 49163  70.0002  49.0293 0002556 262.6337  97.4531 14.97523092218257
STARLINK-3106           
1 49164U 21082AL  25237.63136551  .00001153  00000+0  10442-3 0  9999
2 49164  69.9988  48.7812 0002235 268.9101  91.1802 14.98324430218273
