[{"OBJECT_NAME":"STARLINK-3119","OBJECT_ID":"2021-082R","EPOCH":"2025-08-25T13:50:41.949888","MEAN_MOTION":14.9833387,"ECCENTRICITY":0.00029512,"INCLINATION":70.0012,"RA_OF_ASC_NODE":28.9121,"ARG_OF_PERICENTER":268.8839,"MEAN_ANOMALY":91.1982,"EPHEMERIS_TYPE":0,"CLASSIFICATION_TYPE":"U","NORAD_CAT_ID":49145,"ELEMENT_SET_NO":999,"REV_AT_EPOCH":21758,"BSTAR":6.9868459e-5,"MEAN_MOTION_DOT":7.41e-6,"MEAN_MOTION_DDOT":0},{"OBJECT_NAME":"STARLINK-3116","OBJECT_ID":"2021-082S","EPOCH":"2025-08-25T15:01:43.657536","MEAN_MOTION":14.97521481,"ECCENTRICITY":0.0002787,"INCLINATION":69.9999,"RA_OF_ASC_NODE":48.972,"ARG_OF_PERICENTER":268.043,"MEAN_ANOMALY":92.0409,"EPHEMERIS_TYPE":0,"CLASSIFICATION_TYPE":"U","NORAD_CAT_ID":49146,"ELEMENT_SET_NO":999,"REV_AT_EPOCH":21825,"BSTAR":4.057329e-6,"MEAN_MOTION_DOT":-4.5e-7,"MEAN_MOTION_DDOT":0},{"OBJECT_NAME":"STARLINK-3071","OBJECT_ID":"2021-082T","EPOCH":"2025-08-25T12:32:35.508480","MEAN_MOTION":14.98332232,"ECCENTRICITY":0.00030847,"INCLINATION":70.0012,"RA_OF_ASC_NODE":29.0675,"ARG_OF_PERICENTER":272.6251,"MEAN_ANOMALY":87.4555,"EPHEMERIS_TYPE":0,"CLASSIFICATION_TYPE":"U","NORAD_CAT_ID":49147,"ELEMENT_SET_NO":999,"REV_AT_EPOCH":21758,"BSTAR":3.8997123e-5,"MEAN_MOTION_DOT":3.72e-6,"MEAN_MOTION_DDOT":0},{"OBJECT_NAME":"STARLINK-3048","OBJECT_ID":"2021-082U","EPOCH":"2025-08-25T14:49:41.799360","MEAN_MOTION":14.97522285,"ECCENTRICITY":0.00027534,"INCLINATION":70.0001,"RA_OF_ASC_NODE":48.9727,"ARG_OF_PERICENTER":270.0821,"MEAN_ANOMALY":90.0023,"EPHEMERIS_TYPE":0,"CLASSIFICATION_TYPE":"U","NORAD_CAT_ID":49148,"ELEMENT_SET_NO":999,"REV_AT_EPOCH":21709,"BSTAR":7.0035287e-5,"MEAN_MOTION_DOT":7.26e-6,"MEAN_MOTION_DDOT":0},{"OBJECT_NAME":"STARLINK-3102","OBJECT_ID":"2021-082X","EPOCH":"2025-08-25T13:38:42.169632","MEAN_MOTION":14.98317121,"ECCENTRICITY":0.00032122,"INCLINATION":70.0009,"RA_OF_ASC_NODE":28.9393,"ARG_OF_PERICENTER":266.5379,"MEAN_ANOMALY":93.5413,"EPHEMERIS_TYPE":0,"CLASSIFICATION_TYPE":"U","NORAD_CAT_ID":49151,"ELEMENT_SET_NO":999,"REV_AT_EPOCH":21878,"BSTAR":7.8976265e-5,"MEAN_MOTION_DOT":8.49e-6,"MEAN_MOTION_DDOT":0},{"OBJECT_NAME":"STARLINK-3072","OBJECT_ID":"2021-082Z","EPOCH":"2025-08-25T13:26:40.001280","MEAN_MOTION":14.98331803,"ECCENTRICITY":0.00031511,"INCLINATION":70.0009,"RA_OF_ASC_NODE":28.9666,"ARG_OF_PERICENTER":270.394,"MEAN_ANOMALY":89.6858,"EPHEMERIS_TYPE":0,"CLASSIFICATION_TYPE":"U","NORAD_CAT_ID":49153,"ELEMENT_SET_NO":999,"REV_AT_EPOCH":21879,"BSTAR":7.7375509e-5,"MEAN_MOTION_DOT":8.3e-6,"MEAN_MOTION_DDOT":0},{"OBJECT_NAME":"STARLINK-3068","OBJECT_ID":"2021-082AA","EPOCH":"2025-08-25T14:43:41.639232","MEAN_MOTION":14.97519738,"ECCENTRICITY":0.00026411,"INCLINATION":70.0001,"RA_OF_ASC_NODE":48.9871,"ARG_OF_PERICENTER":268.5354,"MEAN_ANOMALY":91.5502,"EPHEMERIS_TYPE":0,"CLASSIFICATION_TYPE":"U","NORAD_CAT_ID":49154,"ELEMENT_SET_NO":999,"REV_AT_EPOCH":21817,"BSTAR":-9.789465e-6,"MEAN_MOTION_DOT":-2.07e-6,"MEAN_MOTION_DDOT":0},{"OBJECT_NAME":"STARLINK-3060","OBJECT_ID":"2021-082AB","EPOCH":"2025-08-25T14:56:47.607936","MEAN_MOTION":14.98329755,"ECCENTRICITY":0.00029622,"INCLINATION":70.001,"RA_OF_ASC_NODE":28.8017,"ARG_OF_PERICENTER":266.1067,"MEAN_ANOMALY":93.9753,"EPHEMERIS_TYPE":0,"CLASSIFICATION_TYPE":"U","NORAD_CAT_ID":49155,"ELEMENT_SET_NO":999,"REV_AT_EPOCH":21867,"BSTAR":3.7965984e-5,"MEAN_MOTION_DOT":3.6e-6,"MEAN_MOTION_DDOT":0},{"OBJECT_NAME":"STARLINK-3085","OBJECT_ID":"2021-082AC","EPOCH":"2025-08-25T14:26:46.585248","MEAN_MOTION":14.98331986,"ECCENTRICITY":0.00030653,"INCLINATION":70.0011,"RA_OF_ASC_NODE":28.8568,"ARG_OF_PERICENTER":272.5347,"MEAN_ANOMALY":87.5461,"EPHEMERIS_TYPE":0,"CLASSIFICATION_TYPE":"U","NORAD_CAT_ID":49156,"ELEMENT_SET_NO":999,"REV_AT_EPOCH":21867,"BSTAR":8.3369014e-5,"MEAN_MOTION_DOT":9.02e-6,"MEAN_MOTION_DDOT":0},{"OBJECT_NAME":"STARLINK-3051","OBJECT_ID":"2021-082AD","EPOCH":"2025-08-25T13:56:03.186816","MEAN_MOTION":14.98401178,"ECCENTRICITY":0.00024539,"INCLINATION":70.0003,"RA_OF_ASC_NODE":48.9052,"ARG_OF_PERICENTER":266.8943,"MEAN_ANOMALY":93.1936,"EPHEMERIS_TYPE":0,"CLASSIFICATION_TYPE":"U","NORAD_CAT_ID":49157,"ELEMENT_SET_NO":999,"REV_AT_EPOCH":21819,"BSTAR":8.5975833e-5,"MEAN_MOTION_DOT":9.35e-6,"MEAN_MOTION_DDOT":0},{"OBJECT_NAME":"STARLINK-3083","OBJECT_ID":"2021-082AE","EPOCH":"2025-08-25T10:46:45.744384","MEAN_MOTION":15.4099862,"ECCENTRICITY":0.00020387,"INCLINATION":69.9818,"RA_OF_ASC_NODE":351.5208,"ARG_OF_PERICENTER":171.6818,"MEAN_ANOMALY":188.4397,"EPHEMERIS_TYPE":0,"CLASSIFICATION_TYPE":"U","NORAD_CAT_ID":49158,"ELEMENT_SET_NO":999,"REV_AT_EPOCH":21960,"BSTAR":0.0010235538,"MEAN_MOTION_DOT":0.00042424,"MEAN_MOTION_DDOT":0},{"OBJECT_NAME":"STARLINK-3056","OBJECT_ID":"2021-082AF","EPOCH":"2025-08-25T14:45:27.039456","MEAN_MOTION":14.98326884,"ECCENTRICITY":0.00021739,"INCLINATION":69.9998,"RA_OF_ASC_NODE":68.8325,"ARG_OF_PERICENTER":271.2061,"MEAN_ANOMALY":88.8849,"EPHEMERIS_TYPE":0,"CLASSIFICATION_TYPE":"U","NORAD_CAT_ID":49159,"ELEMENT_SET_NO":999,"REV_AT_EPOCH":21770,"BSTAR":7.3367365e-5,"MEAN_MOTION_DOT":7.83e-6,"MEAN_MOTION_DDOT":0},{"OBJECT_NAME":"STARLINK-3095","OBJECT_ID":"2021-082AG","EPOCH":"2025-08-25T14:27:24.815520","MEAN_MOTION":14.9834051,"ECCENTRICITY":0.00029258,"INCLINATION":70.0006,"RA_OF_ASC_NODE":68.8451,"ARG_OF_PERICENTER":269.9422,"MEAN_ANOMALY":90.1402,"EPHEMERIS_TYPE":0,"CLASSIFICATION_TYPE":"U","NORAD_CAT_ID":49160,"ELEMENT_SET_NO":999,"REV_AT_EPOCH":21767,"BSTAR":0.00010601382,"MEAN_MOTION_DOT":1.172e-5,"MEAN_MOTION_DDOT":0},{"OBJECT_NAME":"STARLINK-3080","OBJECT_ID":"2021-082AH","EPOCH":"2025-08-25T14:33:27.389664","MEAN_MOTION":14.98330218,"ECCENTRICITY":0.00033255,"INCLINATION":69.9998,"RA_OF_ASC_NODE":68.8316,"ARG_OF_PERICENTER":270.6211,"MEAN_ANOMALY":89.4567,"EPHEMERIS_TYPE":0,"CLASSIFICATION_TYPE":"U","NORAD_CAT_ID":49161,"ELEMENT_SET_NO":999,"REV_AT_EPOCH":21768,"BSTAR":4.7878148e-5,"MEAN_MOTION_DOT":4.78e-6,"MEAN_MOTION_DDOT":0},{"OBJECT_NAME":"STARLINK-3088","OBJECT_ID":"2021-082AK","EPOCH":"2025-08-25T14:25:39.298656","MEAN_MOTION":14.97523092,"ECCENTRICITY":0.00025563,"INCLINATION":70.0002,"RA_OF_ASC_NODE":49.0293,"ARG_OF_PERICENTER":262.6337,"MEAN_ANOMALY":97.4531,"EPHEMERIS_TYPE":0,"CLASSIFICATION_TYPE":"U","NORAD_CAT_ID":49163,"ELEMENT_SET_NO":999,"REV_AT_EPOCH":21825,"BSTAR":-1.8814903e-5,"MEAN_MOTION_DOT":-3.12e-6,"MEAN_MOTION_DDOT":0},{"OBJECT_NAME":"STARLINK-3106","OBJECT_ID":"2021-082AL","EPOCH":"2025-08-25T15:09:09.980064","MEAN_MOTION":14.9832443,"ECCENTRICITY":0.00022351,"INCLINATION":69.9988,"RA_OF_ASC_NODE":48.7812,"ARG_OF_PERICENTER":268.9101,"MEAN_ANOMALY":91.1802,"EPHEMERIS_TYPE":0,"CLASSIFICATION_TYPE":"U","NORAD_CAT_ID":49164,"ELEMENT_SET_NO":999,"REV_AT_EPOCH":21827,"BSTAR":0.00010442321,"MEAN_MOTION_DOT":1.153e-5,"MEAN_MOTION_DDOT":0}]
